SatCatId,ObjectName,LaunchYear,OrbitalPeriod,LaunchMass,StatusCode,Inclination,Status,UcsData,OrbitClassEstimated,LaunchSiteCountry,Owner,UseType,Purpose,LaunchVehicleClass,TLE1,TLE2,MeanMotion,Eccentricity,OrbitClass
16397,COSMOS 1711 [GLONASS],1985,675.73,-1.0,-,66.37,Inactive,0,MEO,Kazakhstan,Russia/USSR,Unknown,Unknown,Unknown,1 16397U 85118B   24023.98660438 -.00000084  00000+0  00000+0 0  9995,2 16397  66.3687 353.2859 0008380 198.1395 346.8004  2.13101656296102,2.13101656,0.000838,MEO
16962,COSMOS 1779 [GLONASS],1986,675.73,-1.0,-,64.44,Inactive,0,MEO,Kazakhstan,Russia/USSR,Unknown,Unknown,Unknown,1 16962U 86071B   24023.20822469 -.00000038  00000+0  00000+0 0  9990,2 16962  64.4450 102.5108 0011221  33.1109 332.9836  2.13102282290589,2.13102282,0.0011221,MEO
16963,COSMOS 1780 [GLONASS],1986,675.72,-1.0,-,64.43,Inactive,0,MEO,Kazakhstan,Russia/USSR,Unknown,Unknown,Unknown,1 16963U 86071C   24022.32144513 -.00000045  00000+0  00000+0 0  9998,2 16963  64.4320 102.2623 0002905 317.5321  95.8893  2.13106741290648,2.13106741,0.0002905,MEO
25157,GFO,1998,95.04,-1.0,-,108.03,Inactive,0,LEO,USA,USA,Unknown,Unknown,Unknown,1 25157U 98007A   24025.38076152  .00011893  00000+0  51367-3 0  9995,2 25157 108.0308 197.6936 0134669 323.1657  36.0331 15.15204182392020,15.15204182,0.0134669,LEO
8774,SATCOM 2,1976,1460.07,-1.0,UNK,10.7,Inactive,0,GSO,USA,USA,Unknown,Unknown,Unknown,1 08774U 76029A   24024.53659604 -.00000176  00000+0  00000+0 0  9993,2 08774  10.6988 315.3851 0056278 215.1095 144.6274  0.98625194110900,0.98625194,0.0056278,GSO
16398,COSMOS 1712 [GLONASS],1985,676.31,-1.0,-,66.36,Inactive,0,MEO,Kazakhstan,Russia/USSR,Unknown,Unknown,Unknown,1 16398U 85118C   24020.34173642 -.00000071  00000+0  00000+0 0  9995,2 16398  66.3586 353.9565 0010818  13.6942 111.6767  2.12920019295339,2.12920019,0.0010818,MEO
25158,ORBCOMM FM03,1998,100.58,-1.0,-,107.97,Inactive,0,LEO,USA,ORBCOMM,Unknown,Unknown,Taurus,1 25158U 98007B   24025.33463712  .00002098  00000+0  82392-3 0  9992,2 25158 107.9731 172.4090 0045204  55.9791 304.5629 14.31753378351140,14.31753378,0.0045204,LEO
16969,NOAA 10,1986,100.8,-1.0,-,98.63,Inactive,0,LEO,USA,USA,Unknown,Unknown,Unknown,1 16969U 86073A   24025.56372705  .00000381  00000+0  16933-3 0  9999,2 16969  98.6276  12.9533 0012786  36.8272  72.6156 14.28511989944648,14.28511989,0.0012786,LEO
25162,GLOBALSTAR M001,1998,116.3,-1.0,-,52.01,Inactive,0,LEO,USA,Globalstar,Unknown,Unknown,Unknown,1 25162U 98008A   24025.15066058 -.00000022  00000+0  57483-3 0  9999,2 25162  52.0058  14.7702 0001472 261.4473 178.3029 12.38175104180652,12.38175104,0.0001472,LEO
25163,GLOBALSTAR M004,1998,113.98,-1.0,-,52.0,Inactive,0,LEO,USA,Globalstar,Unknown,Unknown,Unknown,1 25163U 98008B   24025.60914814 -.00000075  00000+0  15853-3 0  9995,2 25163  51.9981 165.6464 0002402 223.6981 218.5073 12.63349397197407,12.63349397,0.0002402,LEO
25164,GLOBALSTAR M002,1998,123.98,-1.0,-,52.0,Inactive,0,LEO,USA,Globalstar,Unknown,Unknown,Unknown,1 25164U 98008C   24025.30569896 -.00000095  00000+0 -36105-3 0  9995,2 25164  52.0021  76.1265 0000958 269.0321  91.0389 11.61496855124937,11.61496855,9.58e-05,LEO
589,DASH 1,1963,166.35,-1.0,UNK,87.31,Inactive,0,MEO,USA,USA,Unknown,Unknown,Unknown,1 00589U 63014D   24021.09736531 -.00000012  00000+0 -67281-2 0  9999,2 00589  87.3053 274.3970 0148082 177.0483 183.1274  8.65637011917836,8.65637011,0.0148082,MEO
25165,GLOBALSTAR M003,1998,118.81,-1.0,-,51.98,Inactive,0,LEO,USA,Globalstar,Unknown,Unknown,Unknown,1 25165U 98008D   24025.63344788  .00000065  00000+0  16511-2 0  9996,2 25165  51.9816 137.0706 0007602 354.1806 110.8552 12.11971730171550,12.1197173,0.0007602,LEO
41554,COSMOS 2516 [GLONASS-M],2016,675.72,1415.0,-,63.86,Inactive,1,MEO,Russia,Russia/USSR,Commercial/Military,Navigation (Global or Regional Positioning),Soyuz,1 41554U 16032A   24020.47089907  .00000112  00000+0  00000+0 0  9995,2 41554  63.8560 221.2883 0014673 210.4944 149.4707  2.13106406 59504,2.13106406,0.0014673,MEO
25175,KAKEHASHI (COMETS),1998,328.06,-1.0,-,30.12,Inactive,0,MEO,Japan,Japan,Unknown,Unknown,Unknown,1 25175U 98011A   24025.44313876 -.00000020  00000+0  00000+0 0  9999,2 25175  30.1214  93.4098 5293644 166.3741 216.8203  4.38943381424484,4.38943381,0.5293644,MEO
16986,COSMOS 1782,1986,95.06,-1.0,UNK,82.54,Inactive,0,LEO,Russia,Russia/USSR,Unknown,Unknown,Tsiklon,1 16986U 86074A   24025.24748914  .00007574  00000+0  40611-3 0  9994,2 16986  82.5354 289.6071 0009574  53.3261 306.8850 15.14790018 13377,15.14790018,0.0009574,LEO
8799,METEOR 1-24,1976,102.01,-1.0,UNK,81.26,Inactive,0,LEO,Russia,Russia/USSR,Unknown,Unknown,Unknown,1 08799U 76032A   24025.39050463  .00000274  00000+0  14268-3 0  9990,2 08799  81.2574   0.1205 0034734 172.9649 187.2017 14.11653388460689,14.11653388,0.0034734,LEO
608,ERS 6,1963,166.42,-1.0,UNK,87.31,Inactive,0,MEO,USA,USA,Unknown,Unknown,Atlas,1 00608U 63014C   24022.12034204 -.00000023  00000+0 -11930-1 0  9995,2 00608  87.3096 277.0084 0079928 190.4671 169.4520  8.65291426917636,8.65291426,0.0079928,MEO
16993,COSMOS 1783,1986,142.57,-1.0,UNK,62.08,Inactive,0,MEO,Russia,Russia/USSR,Unknown,Unknown,Molniya,1 16993U 86075A   24025.22836650  .00368004  11445-5  81213-3 0  9998,2 16993  62.0802 355.7965 2761202  36.0663 339.8223 10.10027591596176,10.10027591,0.2761202,MEO
33378,COSMOS 2442 [GLONASS-M],2008,675.71,-1.0,-,65.88,Inactive,0,MEO,Kazakhstan,Russia/USSR,Unknown,Unknown,Unknown,1 33378U 08046A   24025.47757652 -.00000085  00000+0  00000+0 0  9990,2 33378  65.8820 344.2141 0020467 306.7843  58.5785  2.13109058119338,2.13109058,0.0020467,MEO
33379,COSMOS 2443 [GLONASS-M],2008,675.75,-1.0,-,65.89,Inactive,0,MEO,Kazakhstan,Russia/USSR,Unknown,Unknown,Unknown,1 33379U 08046B   24024.64047676 -.00000087  00000+0  00000+0 0  9999,2 33379  65.8927 344.3475 0012855 191.8108 351.1043  2.13097919119305,2.13097919,0.0012855,MEO
33380,COSMOS 2444 [GLONASS-M],2008,675.7,-1.0,-,65.9,Inactive,0,MEO,Kazakhstan,Russia/USSR,Unknown,Unknown,Unknown,1 33380U 08046C   24024.93104845 -.00000086  00000+0  00000+0 0  9994,2 33380  65.9010 344.3829 0020387 296.1353 242.4025  2.13112376119312,2.13112376,0.0020387,MEO
614,HITCH HIKER 1,1963,93.82,-1.0,UNK,81.95,Inactive,0,LEO,USA,USA,Unknown,Unknown,Thor,1 00614U 63025B   24025.61587938  .00072577  40355-6  63504-3 0  9999,2 00614  81.9491 225.1074 0266255 266.9190  90.1559 15.34889590792385,15.3488959,0.0266255,LEO
8808,NATO 3A,1976,1442.14,-1.0,UNK,6.98,Inactive,0,GSO,USA,NATO,Unknown,Unknown,Unknown,1 08808U 76035A   24025.02132694 -.00000137  00000+0  00000+0 0  9995,2 08808   6.9795 303.0180 0024469 307.2066 232.3169  0.99851524738542,0.99851524,0.0024469,GSO
622,MIDAS 7/ERS 10,1963,167.85,-1.0,UNK,88.38,Inactive,0,MEO,USA,USA,Unknown,Unknown,Unknown,1 00622U 63030A   24024.87965257  .00000028  00000+0  13146-1 0  9998,2 00622  88.3818 259.8820 0034024 212.1664 147.7110  8.57932144384792,8.57932144,0.0034024,MEO
33393,DEMOSAT/FALCON 1,2008,96.72,-1.0,UNK,9.35,Inactive,0,LEO,USA,USA,Unknown,Unknown,Unknown,1 33393U 08048A   24025.09556116  .00005092  00000+0  46015-3 0  9991,2 33393   9.3465  45.9157 0012343 152.0465 208.0398 14.88798155832051,14.88798155,0.0012343,LEO
634,SYNCOM 2 (A 26),1963,1436.35,-1.0,-,31.83,Inactive,0,GSO,USA,USA,Unknown,Unknown,Unknown,1 00634U 63031A   24022.83827443 -.00000053  00000+0  00000+0 0  9992,2 00634  31.8277 312.7218 0008191 190.3091 351.2102  1.00253884221571,1.00253884,0.0008191,GSO
8835,SSU 1,1976,104.19,-1.0,UNK,63.35,Inactive,0,LEO,USA,USA,Unknown,Unknown,Unknown,1 08835U 76038C   24025.58552035  .00001393  00000+0  58259-3 0  9991,2 08835  63.3506 146.8416 0477178 168.7272 192.4934 13.82058808238026,13.82058808,0.0477178,LEO
8836,SSU 2,1976,104.2,-1.0,UNK,63.35,Inactive,0,LEO,USA,USA,Unknown,Unknown,Unknown,1 08836U 76038D   24025.55291144  .00001390  00000+0  58549-3 0  9999,2 08836  63.3503 148.5832 0476148 168.9506 192.2458 13.81924128230491,13.81924128,0.0476148,LEO
33414,VENESAT-1,2008,1450.61,-1.0,-,3.5,Inactive,0,GSO,PRC,Venezuela,Unknown,Unknown,Unknown,1 33414U 08055A   24025.73451188  .00000090  00000+0  00000+0 0  9990,2 33414   3.5023  83.3917 0063679 172.0943   3.2651  0.99268891 55658,0.99268891,0.0063679,GSO
8838,COMSTAR 1,1976,1442.47,-1.0,UNK,9.82,Inactive,0,GSO,USA,USA,Unknown,Unknown,Unknown,1 08838U 76042A   24025.52922369 -.00000329  00000+0  00000+0 0  9990,2 08838   9.8250 311.3733 0002996 333.1655 166.7959  0.99828601111858,0.99828601,0.0002996,GSO
8845,METEOR 1-25,1976,102.01,-1.0,UNK,81.26,Inactive,0,LEO,Russia,Russia/USSR,Unknown,Unknown,Unknown,1 08845U 76043A   24025.61168719  .00000201  00000+0  10344-3 0  9994,2 08845  81.2611  86.7107 0038751 252.2100 107.4842 14.11625332601664,14.11625332,0.0038751,LEO
25237,EUTELSAT 16B,1998,1465.23,-1.0,-,9.2,Inactive,0,GSO,French Guiana,EUTELSAT,Unknown,Unknown,Unknown,1 25237U 98013A   24025.53123786 -.00000209  00000+0  00000+0 0  9998,2 25237   9.1996  53.4360 0006603 279.8587 126.1752  0.98277962 31645,0.98277962,0.0006603,GSO
17046,RADUGA 19,1986,1462.52,-1.0,-,12.45,Inactive,0,GSO,Kazakhstan,Russia/USSR,Unknown,Unknown,Unknown,1 17046U 86082A   24025.48132240 -.00000050  00000+0  00000+0 0  9993,2 17046  12.4463 331.1477 0012620 168.4321 195.1752  0.98459908134316,0.98459908,0.001262,GSO
25239,NSS-806,1998,1453.43,-1.0,-,4.88,Inactive,0,GSO,USA,SES,Unknown,Unknown,Unknown,1 25239U 98014A   24025.66741733  .00000042  00000+0  00000+0 0  9997,2 25239   4.8856  80.0945 0003566  75.8356 101.1797  0.99076243 94665,0.99076243,0.0003566,GSO
8860,P 76-5,1976,105.27,-1.0,UNK,99.93,Inactive,0,LEO,USA,USA,Unknown,Unknown,Unknown,1 08860U 76047A   24025.52010821  .00000200  00000+0  28924-3 0  9997,2 08860  99.9321 203.1937 0042212  57.6397  12.6901 13.67925366376924,13.67925366,0.0042212,LEO
